{"type": "FeatureCollection", "features": [ {"type": "Feature", "properties": {"norad_id": 17070, "name": "POLAR BEAR", "group": "nnss", "lat": -81.3574987330509, "lon": -178.65973237177303, "alt_km": 1015.0743105007004, "timestamp": "2025-12-10T14:53:37.361505+00:00", "meta": {"OBJECT_NAME": "POLAR BEAR", "OBJECT_ID": "1986-088A", "EPOCH": "2025-12-10T07:23:53.550816", "MEAN_MOTION": 13.75250078, "ECCENTRICITY": 0.00408265, "INCLINATION": 89.6176, "RA_OF_ASC_NODE": 183.8711, "ARG_OF_PERICENTER": 126.2884, "MEAN_ANOMALY": 46.8679, "EPHEMERIS_TYPE": 0, "CLASSIFICATION_TYPE": "U", "NORAD_CAT_ID": 17070, "ELEMENT_SET_NO": 999, "REV_AT_EPOCH": 95945, "BSTAR": 0.00014713443, "MEAN_MOTION_DOT": 1.53e-06, "MEAN_MOTION_DDOT": 0}, "tle": {"line1": "1 17070U 86088A   25344.30825869  .00000153  00000+0  14713-3 0  9991", "line2": "2 17070  89.6176 183.8711 0040826 126.2884  46.8679 13.75250078959454"}}, "geometry": {"type": "Point", "coordinates": [-178.65973237177303, -81.3574987330509]}}, {"type": "Feature", "properties": {"norad_id": 18361, "name": "OSCAR 27", "group": "nnss", "lat": 47.04223848211762, "lon": 78.79097737589376, "alt_km": 1163.6062929508334, "timestamp": "2025-12-10T14:53:37.361515+00:00", "meta": {"OBJECT_NAME": "OSCAR 27", "OBJECT_ID": "1987-080A", "EPOCH": "2025-12-10T07:30:50.639904", "MEAN_MOTION": 13.44905998, "ECCENTRICITY": 0.01027331, "INCLINATION": 90.3742, "RA_OF_ASC_NODE": 79.1816, "ARG_OF_PERICENTER": 230.8235, "MEAN_ANOMALY": 128.3753, "EPHEMERIS_TYPE": 0, "CLASSIFICATION_TYPE": "U", "NORAD_CAT_ID": 18361, "ELEMENT_SET_NO": 999, "REV_AT_EPOCH": 87524, "BSTAR": 0.00027654573, "MEAN_MOTION_DOT": 1.75e-06, "MEAN_MOTION_DDOT": 0}, "tle": {"line1": "1 18361U 87080A   25344.31308611  .00000175  00000+0  27655-3 0  9993", "line2": "2 18361  90.3742  79.1816 0102733 230.8235 128.3753 13.44905998875244"}}, "geometry": {"type": "Point", "coordinates": [78.79097737589376, 47.04223848211762]}}, {"type": "Feature", "properties": {"norad_id": 18362, "name": "OSCAR 29", "group": "nnss", "lat": 62.90934497472667, "lon": 78.91742530137574, "alt_km": 1162.9848527454506, "timestamp": "2025-12-10T14:53:37.361525+00:00", "meta": {"OBJECT_NAME": "OSCAR 29", "OBJECT_ID": "1987-080B", "EPOCH": "2025-12-10T07:44:04.763040", "MEAN_MOTION": 13.44447807, "ECCENTRICITY": 0.01038114, "INCLINATION": 90.3754, "RA_OF_ASC_NODE": 79.6406, "ARG_OF_PERICENTER": 254.1865, "MEAN_ANOMALY": 165.6643, "EPHEMERIS_TYPE": 0, "CLASSIFICATION_TYPE": "U", "NORAD_CAT_ID": 18362, "ELEMENT_SET_NO": 999, "REV_AT_EPOCH": 87477, "BSTAR": 0.00024989806, "MEAN_MOTION_DOT": 1.57e-06, "MEAN_MOTION_DDOT": 0}, "tle": {"line1": "1 18362U 87080B   25344.32227735  .00000157  00000+0  24990-3 0  9991", "line2": "2 18362  90.3754  79.6406 0103811 254.1865 165.6643 13.44447807874773"}}, "geometry": {"type": "Point", "coordinates": [78.91742530137574, 62.90934497472667]}}, {"type": "Feature", "properties": {"norad_id": 19070, "name": "OSCAR 23", "group": "nnss", "lat": -33.66150451899527, "lon": 16.54122007917786, "alt_km": 1270.4489722166063, "timestamp": "2025-12-10T14:53:37.361534+00:00", "meta": {"OBJECT_NAME": "OSCAR 23", "OBJECT_ID": "1988-033A", "EPOCH": "2025-12-10T02:41:29.887872", "MEAN_MOTION": 13.27786545, "ECCENTRICITY": 0.01893129, "INCLINATION": 90.3214, "RA_OF_ASC_NODE": 16.3112, "ARG_OF_PERICENTER": 187.2307, "MEAN_ANOMALY": 228.9665, "EPHEMERIS_TYPE": 0, "CLASSIFICATION_TYPE": "U", "NORAD_CAT_ID": 19070, "ELEMENT_SET_NO": 999, "REV_AT_EPOCH": 82218, "BSTAR": 0.00019058217, "MEAN_MOTION_DOT": 1.03e-06, "MEAN_MOTION_DDOT": 0}, "tle": {"line1": "1 19070U 88033A   25344.11215148  .00000103  00000+0  19058-3 0  9999", "line2": "2 19070  90.3214  16.3112 0189312 187.2307 228.9665 13.27786545822181"}}, "geometry": {"type": "Point", "coordinates": [16.54122007917786, -33.66150451899527]}}, {"type": "Feature", "properties": {"norad_id": 19071, "name": "OSCAR 32", "group": "nnss", "lat": 71.92960502911231, "lon": 15.471720807229714, "alt_km": 1171.418408916701, "timestamp": "2025-12-10T14:53:37.361544+00:00", "meta": {"OBJECT_NAME": "OSCAR 32", "OBJECT_ID": "1988-033B", "EPOCH": "2025-12-10T04:02:11.577120", "MEAN_MOTION": 13.27953499, "ECCENTRICITY": 0.01881562, "INCLINATION": 90.3219, "RA_OF_ASC_NODE": 16.4448, "ARG_OF_PERICENTER": 173.9306, "MEAN_ANOMALY": 258.7457, "EPHEMERIS_TYPE": 0, "CLASSIFICATION_TYPE": "U", "NORAD_CAT_ID": 19071, "ELEMENT_SET_NO": 999, "REV_AT_EPOCH": 82231, "BSTAR": 0.00017276505, "MEAN_MOTION_DOT": 9.5e-07, "MEAN_MOTION_DDOT": 0}, "tle": {"line1": "1 19071U 88033B   25344.16818955  .00000095  00000+0  17277-3 0  9991", "line2": "2 19071  90.3219  16.4448 0188156 173.9306 258.7457 13.27953499822315"}}, "geometry": {"type": "Point", "coordinates": [15.471720807229714, 71.92960502911231]}}, {"type": "Feature", "properties": {"norad_id": 19223, "name": "NOVA 2", "group": "nnss", "lat": -50.869373824892875, "lon": 78.25919269311943, "alt_km": 1173.8002795438688, "timestamp": "2025-12-10T14:53:37.361554+00:00", "meta": {"OBJECT_NAME": "NOVA 2", "OBJECT_ID": "1988-052A", "EPOCH": "2025-12-10T06:20:29.014944", "MEAN_MOTION": 13.22935625, "ECCENTRICITY": 0.00307992, "INCLINATION": 89.9871, "RA_OF_ASC_NODE": 78.2755, "ARG_OF_PERICENTER": 23.6334, "MEAN_ANOMALY": 29.7699, "EPHEMERIS_TYPE": 0, "CLASSIFICATION_TYPE": "U", "NORAD_CAT_ID": 19223, "ELEMENT_SET_NO": 999, "REV_AT_EPOCH": 80915, "BSTAR": 0.00020088291, "MEAN_MOTION_DOT": 9.3e-07, "MEAN_MOTION_DDOT": 0}, "tle": {"line1": "1 19223U 88052A   25344.26422471  .00000093  00000+0  20088-3 0  9998", "line2": "2 19223  89.9871  78.2755 0030799  23.6334  29.7699 13.22935625809157"}}, "geometry": {"type": "Point", "coordinates": [78.25919269311943, -50.869373824892875]}}, {"type": "Feature", "properties": {"norad_id": 19419, "name": "OSCAR 25", "group": "nnss", "lat": -55.51384330666614, "lon": -159.81345746699213, "alt_km": 1038.9557337330052, "timestamp": "2025-12-10T14:53:37.361563+00:00", "meta": {"OBJECT_NAME": "OSCAR 25", "OBJECT_ID": "1988-074A", "EPOCH": "2025-12-10T03:17:45.154752", "MEAN_MOTION": 13.42622609, "ECCENTRICITY": 0.00943467, "INCLINATION": 90.0349, "RA_OF_ASC_NODE": 20.2357, "ARG_OF_PERICENTER": 253.3967, "MEAN_ANOMALY": 168.0048, "EPHEMERIS_TYPE": 0, "CLASSIFICATION_TYPE": "U", "NORAD_CAT_ID": 19419, "ELEMENT_SET_NO": 999, "REV_AT_EPOCH": 82605, "BSTAR": 0.00020993943, "MEAN_MOTION_DOT": 1.3e-06, "MEAN_MOTION_DDOT": 0}, "tle": {"line1": "1 19419U 88074A   25344.13732818  .00000130  00000+0  20994-3 0  9992", "line2": "2 19419  90.0349  20.2357 0094346 253.3967 168.0048 13.42622609826054"}}, "geometry": {"type": "Point", "coordinates": [-159.81345746699213, -55.51384330666614]}}, {"type": "Feature", "properties": {"norad_id": 19420, "name": "OSCAR 31", "group": "nnss", "lat": 60.98357935703056, "lon": -159.34700619128913, "alt_km": 1135.2453258275564, "timestamp": "2025-12-10T14:53:37.361573+00:00", "meta": {"OBJECT_NAME": "OSCAR 31", "OBJECT_ID": "1988-074B", "EPOCH": "2025-12-10T03:52:58.446048", "MEAN_MOTION": 13.42584001, "ECCENTRICITY": 0.00926262, "INCLINATION": 90.0366, "RA_OF_ASC_NODE": 20.5853, "ARG_OF_PERICENTER": 247.4219, "MEAN_ANOMALY": 176.2622, "EPHEMERIS_TYPE": 0, "CLASSIFICATION_TYPE": "U", "NORAD_CAT_ID": 19420, "ELEMENT_SET_NO": 999, "REV_AT_EPOCH": 82616, "BSTAR": 0.00017401837, "MEAN_MOTION_DOT": 1.09e-06, "MEAN_MOTION_DDOT": 0}, "tle": {"line1": "1 19420U 88074B   25344.16178757  .00000109  00000+0  17402-3 0  9999", "line2": "2 19420  90.0366  20.5853 0092626 247.4219 176.2622 13.42584001826166"}}, "geometry": {"type": "Point", "coordinates": [-159.34700619128913, 60.98357935703056]}}]}